GLOBALSTAR M094         
1 39074U 13005C   24235.65296410 -.00000094  00000+0  54571-4 0  9990
2 39074  51.9981  11.0648 0000632  76.0639 284.0297 12.62267013534699
GLOBALSTAR M096         
1 39075U 13005D   24235.19110748 -.00000094  00000+0  53692-4 0  9992
2 39075  52.0076  60.7525 0000662  54.2193 305.8736 12.62269051533534
GLOBALSTAR M078         
1 39076U 13005E   24235.48136493  .00000029  00000+0  74175-3 0  9995
2 39076  51.9866 144.7854 0000432 233.8633 126.2193 12.62275664532197
GLOBALSTAR M095         
1 39077U 13005F   24235.11182303 -.00000059  00000+0  24720-3 0  9992
2 39077  51.9792 143.2562 0000437 332.5765  27.5078 12.62263510532006
GLOBALSTAR M087         
1 52888U 22064A   24235.53720263 -.00000058  00000+0  13370-3 0  9999
2 52888  51.9775 337.0212 0009679 169.4486 190.6619 13.37582529106402
